OBJECT_NAME,OBJECT_ID,EPOCH,MEAN_MOTION,ECCENTRICITY,INCLINATION,RA_OF_ASC_NODE,ARG_OF_PERICENTER,MEAN_ANOMALY,EPHEMERIS_TYPE,CLASSIFICATION_TYPE,NORAD_CAT_ID,ELEMENT_SET_NO,REV_AT_EPOCH,BSTAR,MEAN_MOTION_DOT,MEAN_MOTION_DDOT
STARLINK-34126,2025-107V,2026-07-01T15:09:00.666144,15.27596020,.00014388,42.9993,278.3018,276.6035,83.4652,0,U,64083,999,6245,.78766169E-3,.21486E-3,0
STARLINK-34157,2025-107W,2026-07-01T14:19:02.694144,15.27597079,.00022523,43.0045,278.0316,252.9557,107.1048,0,U,64084,999,6352,.79299051E-3,.21635E-3,0
STARLINK-34140,2025-107X,2026-07-01T14:48:39.183552,15.27603593,.00010589,43.0010,278.1908,284.0385,76.0349,0,U,64085,999,6352,.64656261E-3,.17585E-3,0
STARLINK-34132,2025-107Y,2026-07-01T15:03:28.094400,15.27596935,.00013778,43.0008,278.2702,351.8971,8.1859,0,U,64086,999,6351,.67734949E-3,.18433E-3,0
STARLINK-34178,2025-110A,2026-07-01T10:07:58.823904,15.31721260,.000097,53.1602,218.6118,121.7910,238.3186,0,U,64096,999,6329,.91734966E-3,.28228E-3,0
STARLINK-34174,2025-110B,2026-07-01T09:20:18.257280,15.34411044,.00010054,53.1566,216.9958,76.1535,283.9580,0,U,64097,999,6331,.64446793E-3,.21468E-3,0
STARLINK-34146,2025-110C,2026-07-01T08:43:56.867232,15.34438882,.00012498,53.1583,216.8395,96.2772,263.8373,0,U,64098,999,6330,.13299157E-2,.44882E-3,0
STARLINK-34074,2025-110D,2026-07-01T08:53:32.840736,15.30229567,.00010843,53.1583,219.0046,90.2759,269.8366,0,U,64099,999,6328,.11564164E-2,.34079E-3,0
STARLINK-34082,2025-110E,2026-07-01T08:50:30.449472,15.30218192,.00014712,53.1586,218.9954,76.3626,283.7539,0,U,64100,999,6328,.71567718E-3,.20909E-3,0
STARLINK-34072,2025-110F,2026-07-01T08:40:38.926560,15.31688524,.00013811,53.1584,218.2448,62.4675,297.6466,0,U,64101,999,6329,.85607388E-3,.26284E-3,0
STARLINK-34104,2025-110G,2026-07-01T06:33:55.558080,15.34414085,.00014555,53.1570,217.6954,85.8369,274.2800,0,U,64102,999,6329,.98774389E-3,.33159E-3,0
STARLINK-34179,2025-110H,2026-07-01T08:58:06.176640,15.30219214,.00012711,53.1587,219.0260,77.4600,282.6543,0,U,64103,999,6328,.43261604E-3,.12483E-3,0
STARLINK-34176,2025-110J,2026-07-01T08:48:59.147136,15.30219117,.0001499,53.1593,218.9851,83.9226,276.1946,0,U,64104,999,6328,.70215095E-3,.20506E-3,0
STARLINK-33949,2025-110K,2026-07-01T11:55:43.493088,15.31730369,.00010264,53.1580,217.6656,56.8786,303.2314,0,U,64105,999,6331,.73351743E-3,.22487E-3,0
STARLINK-33970,2025-110L,2026-07-01T06:43:00.732576,15.34448128,.00012197,53.1568,217.7343,109.5842,250.5293,0,U,64106,999,6329,.22683916E-2,.77175E-3,0
STARLINK-33912,2025-110M,2026-07-01T11:42:18.563904,15.31717357,.00014337,53.1577,217.6066,65.2502,294.8648,0,U,64107,999,6331,.53514157E-3,.16286E-3,0
STARLINK-34156,2025-110N,2026-07-01T11:35:05.184096,15.31716728,.00008751,53.1579,217.5712,78.4024,281.7075,0,U,64108,999,6331,.73990187E-3,.22677E-3,0
STARLINK-34124,2025-110P,2026-07-01T11:28:21.822240,15.31717791,.00009867,53.1568,217.5444,71.0737,289.0371,0,U,64109,999,6331,.97853095E-3,.30139E-3,0
STARLINK-34145,2025-110Q,2026-07-01T12:00:37.797408,15.34425093,.00011836,53.1573,216.2666,84.1312,275.9825,0,U,64110,999,6333,.81735441E-3,.27362E-3,0
STARLINK-34148,2025-110R,2026-07-01T06:33:02.661408,15.31727046,.00017215,53.1556,218.3946,87.4150,272.7049,0,U,64111,999,6328,.10545006E-2,.32528E-3,0
STARLINK-34136,2025-110S,2026-07-01T11:21:38.526048,15.31719328,.00008184,53.1560,217.5161,101.9765,258.1328,0,U,64112,999,6331,.60292304E-3,.18402E-3,0
STARLINK-33839,2025-110T,2026-07-01T11:35:33.832608,15.31710197,.0000879,53.1568,217.5695,113.6726,246.4368,0,U,64113,999,6331,.62767834E-3,.19169E-3,0
STARLINK-34064,2025-110U,2026-07-01T12:02:27.099456,15.31717649,.0001202,53.1581,217.6929,78.1210,281.9926,0,U,64114,999,6331,.10435746E-2,.32176E-3,0
STARLINK-34067,2025-110V,2026-07-01T11:22:05.292768,15.34607168,.0002539,53.1591,216.8200,37.3889,322.7290,0,U,64115,999,6332,.12962002E-2,.43967E-3,0
STARLINK-34080,2025-110W,2026-07-01T09:27:30.969216,15.31720187,.00010245,53.1555,217.7320,105.0334,255.0781,0,U,64116,999,6329,.68177749E-3,.20864E-3,0
STARLINK-34122,2025-110X,2026-07-01T09:34:14.268000,15.31722000,.00011351,53.1561,217.7569,84.0747,276.0384,0,U,64117,999,6329,.83925634E-3,.25786E-3,0
STARLINK-33964,2025-110Y,2026-07-01T11:48:59.137632,15.31707936,.00011227,53.1587,217.6306,80.7137,279.3992,0,U,64118,999,6331,.85140262E-4,.2278E-4,0
STARLINK-34160,2025-110Z,2026-07-01T07:20:45.399264,15.34415664,.00014111,53.1572,213.6215,126.1138,233.9995,0,U,64119,999,6335,.71631835E-3,.23915E-3,0
STARLINK-34151,2025-110AA,2026-07-01T08:46:49.429632,15.31176328,.00018118,53.1601,218.9711,57.7002,302.4175,0,U,64120,999,6328,.1115253E-2,.33839E-3,0
STARLINK-34189,2025-110AB,2026-07-01T13:37:14.461536,15.30112850,.00010288,53.1580,218.0924,104.4140,255.6975,0,U,64121,999,6331,.13382465E-2,.39379E-3,0
STARLINK-33991,2025-110AC,2026-07-01T09:21:17.258976,15.31740570,.00010545,53.1558,217.7017,108.5146,251.5970,0,U,64122,999,6329,.59599495E-3,.18198E-3,0
STARLINK-11727 [DTC],2025-111A,2026-07-01T13:19:29.340480,15.70934687,.00015608,42.9999,7.8276,266.8317,93.2373,0,U,64123,999,6454,.19006629E-2,.25197E-2,0
STARLINK-11724 [DTC],2025-111B,2026-06-30T22:49:36.149376,15.70851207,.00021857,43.0004,11.0184,348.7149,11.3669,0,U,64124,999,6445,.14895423E-2,.195335E-2,0
STARLINK-11725 [DTC],2025-111C,2026-07-01T11:25:00.244992,15.70875284,.00017904,42.9974,8.0819,326.3496,33.7258,0,U,64125,999,6453,.30301251E-3,.38672E-3,0
STARLINK-11717 [DTC],2025-111D,2026-07-01T05:26:24.998208,15.70903551,.0000814,43.0003,9.6557,325.2849,34.7965,0,U,64126,999,6444,.16956E-2,.223674E-2,0
STARLINK-11721 [DTC],2025-111E,2026-06-30T22:26:39.126048,15.70876636,.0001953,43.0005,10.8899,255.7605,104.3046,0,U,64127,999,6445,.12647E-2,.165358E-2,0
STARLINK-11722 [DTC],2025-111F,2026-07-01T05:03:28.660896,15.70925185,.0001672,43.0000,9.5279,292.7275,67.3416,0,U,64128,999,6444,.18968E-2,.251334E-2,0
STARLINK-11679 [DTC],2025-111G,2026-07-01T12:18:19.334592,15.71001964,.00023922,43.0004,7.4819,252.5898,107.4708,0,U,64129,999,6454,.1817037E-2,.241238E-2,0
STARLINK-11735 [DTC],2025-111H,2026-07-01T05:11:07.850112,15.70908309,.0000974,43.0010,9.5711,3.8887,356.1988,0,U,64130,999,6434,.18377E-2,.24307E-2,0
STARLINK-11720 [DTC],2025-111J,2026-06-30T22:41:56.953248,15.70929006,.00033513,43.0027,10.9765,312.0587,47.9996,0,U,64131,999,6440,.23911611E-2,.319681E-2,0
STARLINK-11718 [DTC],2025-111K,2026-07-01T13:20:47.907456,15.70947802,.0002104,43.0004,7.8281,265.8149,94.2478,0,U,64132,999,6459,.23394221E-2,.312716E-2,0
STARLINK-11716 [DTC],2025-111L,2026-06-30T21:56:15.292032,15.70902497,.0002385,43.0027,11.6101,270.3972,89.6622,0,U,64133,999,6449,.15916E-2,.209563E-2,0
STARLINK-11714 [DTC],2025-111M,2026-06-30T14:41:12.685632,15.70864244,.00017093,43.0006,12.7610,255.4219,104.6459,0,U,64134,999,6440,.46206086E-3,.59326E-3,0
STARLINK-11712 [DTC],2025-111N,2026-07-01T05:49:20.786016,15.71026136,.000242,42.9995,9.7812,283.3142,76.7456,0,U,64135,999,6449,.30959E-2,.420859E-2,0
STARLINK-34254,2025-111P,2026-06-30T09:27:18.983808,15.27592599,.00020305,43.0017,161.0691,278.9520,81.1102,0,U,64136,999,6270,.46750171E-3,.1263E-3,0
STARLINK-34230,2025-111Q,2026-07-01T14:00:01.999872,15.94452450,.00243765,42.9806,109.3160,197.4507,326.1057,0,U,64137,999,602,.10393224E-2,.417364E-2,.7652733E-4
STARLINK-34129,2025-111R,2026-07-01T05:14:33.408672,15.27587442,.00005207,43.0002,156.9343,205.8376,154.2450,0,U,64138,999,6287,.85315665E-3,.23294E-3,0
STARLINK-34212,2025-111S,2026-06-30T22:15:23.305248,15.27592135,.0002167,43.0044,158.1925,289.7416,70.3202,0,U,64139,999,6278,.84959E-3,.23199E-3,0
STARLINK-34149,2025-111T,2026-07-01T04:46:48.242208,15.27591898,.0001417,42.9990,156.7863,271.1718,88.8972,0,U,64140,999,6282,.10799557E-2,.29586E-3,0
STARLINK-34054,2025-111U,2026-07-01T04:43:06.240864,15.27587662,.00015147,43.0026,156.7700,275.4372,84.6307,0,U,64141,999,6282,.13217626E-2,.36298E-3,0
STARLINK-34195,2025-111V,2026-06-30T00:11:37.269600,15.27583012,.00010267,42.9981,163.3259,219.0956,140.9821,0,U,64142,999,6264,.85496624E-3,.23341E-3,0
STARLINK-34133,2025-111W,2026-06-30T00:06:06.862176,15.27583516,.00008685,43.0000,163.2998,254.0112,106.0644,0,U,64143,999,6264,.99555126E-3,.27237E-3,0
STARLINK-34181,2025-111X,2026-07-01T04:52:19.827264,15.27623199,.0001511,42.9990,156.8138,266.3786,93.6893,0,U,64144,999,6282,.66859372E-3,.18206E-3,0
STARLINK-34186,2025-111Y,2026-07-01T09:47:45.930336,15.27626467,.00027817,43.0030,155.7727,272.7093,87.3440,0,U,64145,999,6285,.11329962E-2,.31093E-3,0
STARLINK-34314,2025-112A,2026-07-01T09:05:57.967296,15.05652663,.00017,97.2887,232.0474,114.4580,245.6825,0,U,64146,999,6041,.84966253E-3,.12225E-3,0
STARLINK-33926,2025-112B,2026-07-01T03:42:56.985408,15.05672058,.0003254,97.2903,231.8990,154.4079,205.7310,0,U,64147,999,6038,.40085E-3,.5736E-4,0
STARLINK-34213,2025-112C,2026-07-01T14:04:59.842272,15.05662909,.00012195,97.2897,232.2264,112.6224,247.5133,0,U,64148,999,6044,.30896234E-3,.4406E-4,0
STARLINK-33924,2025-112D,2026-07-01T03:07:03.938016,15.05663042,.00019568,97.2917,231.7815,26.2544,333.8783,0,U,64149,999,6037,.2850495E-3,.406E-4,0
STARLINK-34209,2025-112E,2026-07-01T14:40:54.002496,15.05663994,.00027905,97.2866,232.3455,127.1339,233.0144,0,U,64150,999,6045,.38365846E-3,.5486E-4,0
STARLINK-34338,2025-112F,2026-07-01T14:28:56.239680,15.05668289,.00026171,97.2903,232.3615,116.1420,244.0077,0,U,64151,999,6045,.39311169E-3,.5623E-4,0
STARLINK-34348,2025-112G,2026-07-01T02:31:10.620192,15.05667220,.00013747,97.2901,231.8133,100.2340,259.9043,0,U,64152,999,6037,.38771753E-3,.5545E-4,0
STARLINK-34345,2025-112H,2026-07-01T02:19:13.763712,15.05646447,.0000392,97.2919,231.8240,129.4467,230.6795,0,U,64153,999,6037,.15438194E-3,.2172E-4,0
STARLINK-33945,2025-112J,2026-07-01T03:43:48.089280,15.05672403,.0001328,97.2900,240.3820,79.2318,280.9059,0,U,64154,999,6093,.53080022E-3,.7615E-4,0
